[
    {
        "Altitude(m)": 611967.1866266221,
        "Argument of Periapsis(deg)": 0.0,
        "Eccentricity": 0.0,
        "Inclination(deg)": 60.0,
        "Latitude(deg)": 59.14018490014145,
        "Longitude(deg)": 171.09223808234557,
        "Mean Anomaly(deg)": 98.18180000000002,
        "RAAN(deg)": 165.0,
        "Satellite Name": "Test1 732",
        "Satellite Number": 732,
        "Semi-Major Axis(m)": 6980739.136638005,
        "Time(s)": 0
    },
    {
        "Altitude(m)": 611934.3858086795,
        "Argument of Periapsis(deg)": 0.00010418945913296404,
        "Eccentricity": 0.0,
        "Inclination(deg)": 60.0,
        "Latitude(deg)": 58.98654496090876,
        "Longitude(deg)": 172.21548344395777,
        "Mean Anomaly(deg)": 98.80190614546183,
        "RAAN(deg)": 164.99957995086024,
        "Satellite Name": "Test1 732",
        "Satellite Number": 732,
        "Semi-Major Axis(m)": 6980739.136638005,
        "Time(s)": 10
    }
]